{
  "type": "FeatureCollection",
  "features": [
    {
      "type": "Feature",
      "properties": {
        "norad_id": 46805,
        "name": "COSMOS 2547 (705K)",
        "group": "glo-ops",
        "lat": -5.968520707746027,
        "lon": -164.36427399651623,
        "alt_km": 19140.393056842786,
        "timestamp": "2025-12-19T04:59:48.567217+00:00",
        "meta_object_name": "COSMOS 2547 (705K)",
        "meta_object_id": "2020-075A",
        "meta_epoch": "2025-12-17T08:09:16.456320",
        "meta_mean_motion": 2.1310013,
        "meta_eccentricity": 0.0006169,
        "meta_inclination": 64.5962,
        "meta_ra_of_asc_node": 198.5429,
        "meta_arg_of_pericenter": 228.3795,
        "meta_mean_anomaly": 131.6499,
        "meta_ephemeris_type": 0,
        "meta_classification_type": "U",
        "meta_norad_cat_id": 46805,
        "meta_element_set_no": 999,
        "meta_rev_at_epoch": 4003,
        "meta_bstar": 0,
        "meta_mean_motion_dot": 1.12e-06,
        "meta_mean_motion_ddot": 0,
        "tle_line1": "1 46805U 20075A   25351.33977380  .00000112  00000+0  00000+0 0  9995",
        "tle_line2": "2 46805  64.5962 198.5429 0006169 228.3795 131.6499  2.13100130 40034"
      },
      "geometry": {
        "type": "Point",
        "coordinates": [
          -164.36427399651623,
          -5.968520707746027
        ]
      }
    },
    {
      "type": "Feature",
      "properties": {
        "norad_id": 52984,
        "name": "COSMOS 2557 (706K)",
        "group": "glo-ops",
        "lat": -40.78386249393036,
        "lon": 165.2217607700512,
        "alt_km": 19113.06210880751,
        "timestamp": "2025-12-19T04:59:48.567228+00:00",
        "meta_object_name": "COSMOS 2557 (706K)",
        "meta_object_id": "2022-075A",
        "meta_epoch": "2025-12-17T23:22:55.877376",
        "meta_mean_motion": 2.13101861,
        "meta_eccentricity": 0.00136329,
        "meta_inclination": 64.4068,
        "meta_ra_of_asc_node": 320.867,
        "meta_arg_of_pericenter": 277.443,
        "meta_mean_anomaly": 82.3946,
        "meta_ephemeris_type": 0,
        "meta_classification_type": "U",
        "meta_norad_cat_id": 52984,
        "meta_element_set_no": 999,
        "meta_rev_at_epoch": 2685,
        "meta_bstar": 0,
        "meta_mean_motion_dot": -6.7e-07,
        "meta_mean_motion_ddot": 0,
        "tle_line1": "1 52984U 22075A   25351.97425784 -.00000067  00000+0  00000+0 0  9998",
        "tle_line2": "2 52984  64.4068 320.8670 0013632 277.4430  82.3946  2.13101861 26852"
      },
      "geometry": {
        "type": "Point",
        "coordinates": [
          165.2217607700512,
          -40.78386249393036
        ]
      }
    },
    {
      "type": "Feature",
      "properties": {
        "norad_id": 54031,
        "name": "COSMOS 2559 (707K)",
        "group": "glo-ops",
        "lat": 4.807680103404384,
        "lon": -36.79071470525865,
        "alt_km": 19159.275884144125,
        "timestamp": "2025-12-19T04:59:48.567239+00:00",
        "meta_object_name": "COSMOS 2559 (707K)",
        "meta_object_id": "2022-130A",
        "meta_epoch": "2025-12-18T06:18:18.086112",
        "meta_mean_motion": 2.1310139,
        "meta_eccentricity": 0.00116356,
        "meta_inclination": 64.3791,
        "meta_ra_of_asc_node": 320.9467,
        "meta_arg_of_pericenter": 192.0675,
        "meta_mean_anomaly": 167.8974,
        "meta_ephemeris_type": 0,
        "meta_classification_type": "U",
        "meta_norad_cat_id": 54031,
        "meta_element_set_no": 999,
        "meta_rev_at_epoch": 2483,
        "meta_bstar": 0,
        "meta_mean_motion_dot": -6.5e-07,
        "meta_mean_motion_ddot": 0,
        "tle_line1": "1 54031U 22130A   25352.26270933 -.00000065  00000+0  00000+0 0  9990",
        "tle_line2": "2 54031  64.3791 320.9467 0011635 192.0675 167.8974  2.13101390 24831"
      },
      "geometry": {
        "type": "Point",
        "coordinates": [
          -36.79071470525865,
          4.807680103404384
        ]
      }
    },
    {
      "type": "Feature",
      "properties": {
        "norad_id": 54377,
        "name": "COSMOS 2564 (761)",
        "group": "glo-ops",
        "lat": 47.952972138794195,
        "lon": -12.896373957506166,
        "alt_km": 19120.370956256804,
        "timestamp": "2025-12-19T04:59:48.567250+00:00",
        "meta_object_name": "COSMOS 2564 (761)",
        "meta_object_id": "2022-161A",
        "meta_epoch": "2025-12-18T02:33:56.818368",
        "meta_mean_motion": 2.13102096,
        "meta_eccentricity": 0.00085664,
        "meta_inclination": 64.7385,
        "meta_ra_of_asc_node": 198.7206,
        "meta_arg_of_pericenter": 204.1296,
        "meta_mean_anomaly": 155.9125,
        "meta_ephemeris_type": 0,
        "meta_classification_type": "U",
        "meta_norad_cat_id": 54377,
        "meta_element_set_no": 999,
        "meta_rev_at_epoch": 2377,
        "meta_bstar": 0,
        "meta_mean_motion_dot": 1.11e-06,
        "meta_mean_motion_ddot": 0,
        "tle_line1": "1 54377U 22161A   25352.10690762  .00000111  00000+0  00000+0 0  9997",
        "tle_line2": "2 54377  64.7385 198.7206 0008566 204.1296 155.9125  2.13102096 23774"
      },
      "geometry": {
        "type": "Point",
        "coordinates": [
          -12.896373957506166,
          47.952972138794195
        ]
      }
    },
    {
      "type": "Feature",
      "properties": {
        "norad_id": 57517,
        "name": "COSMOS 2569 (703K)",
        "group": "glo-ops",
        "lat": 55.669582600348896,
        "lon": -143.8177978795895,
        "alt_km": 19150.675895176035,
        "timestamp": "2025-12-19T04:59:48.567261+00:00",
        "meta_object_name": "COSMOS 2569 (703K)",
        "meta_object_id": "2023-114A",
        "meta_epoch": "2025-12-18T02:53:08.312640",
        "meta_mean_motion": 2.13104042,
        "meta_eccentricity": 0.00107503,
        "meta_inclination": 65.1969,
        "meta_ra_of_asc_node": 78.7317,
        "meta_arg_of_pericenter": 286.9993,
        "meta_mean_anomaly": 72.9048,
        "meta_ephemeris_type": 0,
        "meta_classification_type": "U",
        "meta_norad_cat_id": 57517,
        "meta_element_set_no": 999,
        "meta_rev_at_epoch": 1840,
        "meta_bstar": 0,
        "meta_mean_motion_dot": -4.2e-07,
        "meta_mean_motion_ddot": 0,
        "tle_line1": "1 57517U 23114A   25352.12023510 -.00000042  00000+0  00000+0 0  9992",
        "tle_line2": "2 57517  65.1969  78.7317 0010750 286.9993  72.9048  2.13104042 18405"
      },
      "geometry": {
        "type": "Point",
        "coordinates": [
          -143.8177978795895,
          55.669582600348896
        ]
      }
    },
    {
      "type": "Feature",
      "properties": {
        "norad_id": 63130,
        "name": "COSMOS 2584 (704K)",
        "group": "glo-ops",
        "lat": -19.500569910395118,
        "lon": -91.56040469979996,
        "alt_km": 19113.92798781637,
        "timestamp": "2025-12-19T04:59:48.567272+00:00",
        "meta_object_name": "COSMOS 2584 (704K)",
        "meta_object_id": "2025-042A",
        "meta_epoch": "2025-12-18T11:25:35.911776",
        "meta_mean_motion": 2.13103072,
        "meta_eccentricity": 0.00077091,
        "meta_inclination": 64.979,
        "meta_ra_of_asc_node": 78.9506,
        "meta_arg_of_pericenter": 218.5301,
        "meta_mean_anomaly": 141.4378,
        "meta_ephemeris_type": 0,
        "meta_classification_type": "U",
        "meta_norad_cat_id": 63130,
        "meta_element_set_no": 999,
        "meta_rev_at_epoch": 619,
        "meta_bstar": 0,
        "meta_mean_motion_dot": -3.8e-07,
        "meta_mean_motion_ddot": 0,
        "tle_line1": "1 63130U 25042A   25352.47611009 -.00000038  00000+0  00000+0 0  9991",
        "tle_line2": "2 63130  64.9790  78.9506 0007709 218.5301 141.4378  2.13103072  6191"
      },
      "geometry": {
        "type": "Point",
        "coordinates": [
          -91.56040469979996,
          -19.500569910395118
        ]
      }
    },
    {
      "type": "Feature",
      "properties": {
        "norad_id": 65590,
        "name": "COSMOS 2596 (708K)",
        "group": "glo-ops",
        "lat": -35.47545650493145,
        "lon": -58.42123417321219,
        "alt_km": 19099.71825418857,
        "timestamp": "2025-12-19T04:59:48.567283+00:00",
        "meta_object_name": "COSMOS 2596 (708K)",
        "meta_object_id": "2025-206B",
        "meta_epoch": "2025-12-18T11:34:10.893792",
        "meta_mean_motion": 2.13100518,
        "meta_eccentricity": 0.00140397,
        "meta_inclination": 64.7412,
        "meta_ra_of_asc_node": 321.2751,
        "meta_arg_of_pericenter": 306.7014,
        "meta_mean_anomaly": 176.2676,
        "meta_ephemeris_type": 0,
        "meta_classification_type": "U",
        "meta_norad_cat_id": 65590,
        "meta_element_set_no": 999,
        "meta_rev_at_epoch": 206,
        "meta_bstar": 0,
        "meta_mean_motion_dot": -6.4e-07,
        "meta_mean_motion_ddot": 0,
        "tle_line1": "1 65590U 25206B   25352.48207053 -.00000064  00000+0  00000+0 0  9995",
        "tle_line2": "2 65590  64.7412 321.2751 0014039 306.7014 176.2676  2.13100518  2064"
      },
      "geometry": {
        "type": "Point",
        "coordinates": [
          -58.42123417321219,
          -35.47545650493145
        ]
      }
    }
  ]
}